{"epoch":1784799577,"count":18318,"objects":[{"id":"33459","name":"EUTE HOT BIRD 13C (HB 9)","type":"PAYLOAD","l1":"1 33459U 08065A   26203.88950091 -.00000281  00000-0  00000-0 0  9998","l2":"2 33459   3.0394  78.7674 0003287  42.0557  89.6861  1.00274791 47704"},{"id":"33595","name":"EXPRESS AM-44","type":"PAYLOAD","l1":"1 33595U 09007A   26203.99015949 -.00000088  00000-0  00000-0 0  9997","l2":"2 33595   3.5534  77.9571 0003991  33.3462 174.8550  1.00271974 52644"},{"id":"33749","name":"NSS 9","type":"PAYLOAD","l1":"1 33749U 09008A   26203.77683400  .00000074  00000-0  00000-0 0  9992","l2":"2 33749   1.3512  82.3070 0002404  24.0349 296.8933  1.00271474 63872"},{"id":"34111","name":"TELSTAR 11N","type":"PAYLOAD","l1":"1 34111U 09009A   26203.92056017 -.00000246  00000-0  00000-0 0  9994","l2":"2 34111   0.0588 257.2014 0002566 212.4432 124.8663  1.00271660 46600"},{"id":"34713","name":"WGS F2 (USA 204)","type":"PAYLOAD","l1":"1 34713U 09017A   26203.91266480  .00000071  00000-0  00000-0 0  9992","l2":"2 34713   0.0151  70.0521 0000566  36.2380 220.4278  1.00276276 45972"},{"id":"34941","name":"SES 7 (PROTOSTAR 2)","type":"PAYLOAD","l1":"1 34941U 09027A   26203.92085698 -.00000340  00000-0  00000-0 0  9997","l2":"2 34941   0.0090  34.5163 0001378 155.2365 190.6419  1.00270323 62983"},{"id":"35362","name":"MEASAT 3A","type":"PAYLOAD","l1":"1 35362U 09032A   26203.85983729 -.00000106  00000-0  00000-0 0  9995","l2":"2 35362   0.0216   7.4183 0002953 103.0136 299.7073  1.00272561  8386"},{"id":"35491","name":"EWS-G3","type":"PAYLOAD","l1":"1 35491U 09033A   26203.92328366 -.00000356  00000-0  00000-0 0  9994","l2":"2 35491   1.7793  82.5995 0002233  39.4726 271.1668  1.00094772  6940"},{"id":"35493","name":"SIRIUS FM-5","type":"PAYLOAD","l1":"1 35493U 09034A   26203.81098544 -.00000196  00000-0  00000-0 0  9999","l2":"2 35493   0.0407 259.3821 0000842 129.7730 117.1659  1.00269867 47000"},{"id":"35496","name":"TERRESTAR 1","type":"PAYLOAD","l1":"1 35496U 09035A   26203.88402010 -.00000056  00000-0  00000-0 0  9992","l2":"2 35496   5.1970  48.7616 0002543  67.6092  31.5036  1.00272469 62497"},{"id":"35696","name":"ASIASAT 5","type":"PAYLOAD","l1":"1 35696U 09042A   26203.13933537 -.00000304  00000-0  00000-0 0  9999","l2":"2 35696   0.0135  49.1374 0001279  47.9625 353.4809  1.00271191 62068"},{"id":"35755","name":"JCSAT 12","type":"PAYLOAD","l1":"1 35755U 09044A   26203.92562367 -.00000323  00000-0  00000-0 0  9994","l2":"2 35755   0.0392 271.9351 0000500 264.9462 229.0552  1.00272322 61963"},{"id":"35756","name":"OPTUS D3","type":"PAYLOAD","l1":"1 35756U 09044B   26203.85905729 -.00000140  00000-0  00000-0 0  9997","l2":"2 35756   0.8962 268.1677 0003611 212.4307 285.3885  1.00274080 61929"},{"id":"35873","name":"NIMIQ 5","type":"PAYLOAD","l1":"1 35873U 09050A   26203.90535013 -.00000253  00000-0  00000-0 0  9990","l2":"2 35873   0.0612 257.8458 0002927 212.5338  83.4937  1.00271881 61706"},{"id":"35942","name":"AMAZONAS 2","type":"PAYLOAD","l1":"1 35942U 09054A   26203.81393212 -.00000257  00000-0  00000-0 0  9998","l2":"2 35942   1.9051  82.5935 0003473  33.7375  45.2498  1.00272309 61540"},{"id":"35943","name":"COMSATBW-1","type":"PAYLOAD","l1":"1 35943U 09054B   26203.91193027  .00000029  00000-0  00000-0 0  9998","l2":"2 35943   0.0669 151.3340 0002969 329.7748 210.8392  1.00272572 61660"},{"id":"36032","name":"NSS 12","type":"PAYLOAD","l1":"1 36032U 09058A   26203.91071692  .00000075  00000-0  00000-0 0  9996","l2":"2 36032   0.0737 268.7794 0004923 175.3851 241.3459  1.00274044 61270"},{"id":"36033","name":"THOR 6","type":"PAYLOAD","l1":"1 36033U 09058B   26203.82800603 -.00000006  00000-0  00000-0 0  9994","l2":"2 36033   0.0416 238.7953 0002071 253.8837 105.1275  1.00269664 61362"},{"id":"36097","name":"INTELSAT 14","type":"PAYLOAD","l1":"1 36097U 09064A   26203.89054091 -.00000269  00000-0  00000-0 0  9991","l2":"2 36097   0.0169  54.3482 0002574  69.5761  92.2927  1.00271234 60963"},{"id":"36101","name":"EUTE 36B (EUTE W7)","type":"PAYLOAD","l1":"1 36101U 09065A   26203.89211340  .00000116  00000-0  00000-0 0  9990","l2":"2 36101   0.5785  81.3622 0005765  36.4485 194.4625  1.00272574 61065"},{"id":"36106","name":"INTELSAT 15","type":"PAYLOAD","l1":"1 36106U 09067A   26203.91635029 -.00000181  00000-0  00000-0 0  9997","l2":"2 36106   0.0150  56.6682 0002383  63.7709 235.2527  1.00272191 41582"},{"id":"36108","name":"WGS F3 (USA 211)","type":"PAYLOAD","l1":"1 36108U 09068A   26203.73116318  .00000068  00000-0  00000-0 0  9998","l2":"2 36108   0.2916  85.6838 0000461  49.4186 298.5756  1.00269778 46944"},{"id":"36131","name":"DIRECTV 12","type":"PAYLOAD","l1":"1 36131U 09075A   26203.66525769 -.00000100  00000-0  00000-0 0  9996","l2":"2 36131   0.0077 213.0864 0000220 346.3224 237.7680  1.00271974 46905"},{"id":"36287","name":"BEIDOU 3","type":"PAYLOAD","l1":"1 36287U 10001A   26203.92727034 -.00000280  00000-0  00000-0 0  9996","l2":"2 36287   4.3755  60.2847 0001691 299.6371  55.0032  1.00270052 60528"},{"id":"36395","name":"SDO","type":"PAYLOAD","l1":"1 36395U 10005A   26202.19615476 -.00000097  00000-0  00000-0 0  9990","l2":"2 36395  34.7200  85.8242 0001647  43.2128 138.3850  1.00277625 60409"},{"id":"36397","name":"INTELSAT 16","type":"PAYLOAD","l1":"1 36397U 10006A   26203.88436407 -.00000240  00000-0  00000-0 0  9995","l2":"2 36397   0.0096 351.6480 0002148 126.4672  64.6787  1.00272186 60017"},{"id":"36411","name":"EWS-G2","type":"PAYLOAD","l1":"1 36411U 10008A   26203.94682146  .00000025  00000-0  00000-0 0  9994","l2":"2 36411   1.3739  82.3732 0005635  52.5640 209.8467  1.00272247 59999"},{"id":"36499","name":"ECHOSTAR 14","type":"PAYLOAD","l1":"1 36499U 10010A   26203.66205101  .00000004  00000-0  00000-0 0  9991","l2":"2 36499   0.0126  40.3638 0002121  66.3754 313.1032  1.00273609 46903"},{"id":"36516","name":"SES 1","type":"PAYLOAD","l1":"1 36516U 10016A   26203.59429703 -.00000111  00000-0  00000-0 0  9995","l2":"2 36516   0.0485 272.9679 0002687 201.6225 298.6930  1.00272236 59388"},{"id":"36581","name":"ASTRA 3B","type":"PAYLOAD","l1":"1 36581U 10021A   26203.94551707  .00000140  00000-0  00000-0 0  9993","l2":"2 36581   1.5586  83.1082 0004200  29.3298 192.1355  1.00273704 59229"},{"id":"36582","name":"COMSATBW-2","type":"PAYLOAD","l1":"1 36582U 10021B   26203.88092112  .00000092  00000-0  00000-0 0  9993","l2":"2 36582   0.0417 147.7105 0002442 341.1519 142.0760  1.00270647 59314"},{"id":"36590","name":"BEIDOU 4","type":"PAYLOAD","l1":"1 36590U 10024A   26202.64452233 -.00000137  00000-0  00000-0 0  9993","l2":"2 36590   4.5954  61.3561 0007235 359.4237 190.2146  1.00273888 59110"}]}