OBJECT_NAME,OBJECT_ID,EPOCH,MEAN_MOTION,ECCENTRICITY,INCLINATION,RA_OF_ASC_NODE,ARG_OF_PERICENTER,MEAN_ANOMALY,EPHEMERIS_TYPE,CLASSIFICATION_TYPE,NORAD_CAT_ID,ELEMENT_SET_NO,REV_AT_EPOCH,BSTAR,MEAN_MOTION_DOT,MEAN_MOTION_DDOT
EUTELSAT HOTBIRD 13C,2008-065A,2026-07-22T21:20:52.878624,1.00274791,.0003287,3.0394,78.7674,42.0557,89.6861,0,U,33459,999,4770,0,-.281E-5,0
EXPRESS-AM44,2009-007A,2026-07-22T23:45:49.779936,1.00271974,.00039907,3.5534,77.9571,33.3462,174.8550,0,U,33595,999,5264,0,-.88E-6,0
NSS-9,2009-008A,2026-07-22T18:38:38.457600,1.00271474,.0002404,1.3512,82.3070,24.0349,296.8933,0,U,33749,999,6387,0,.74E-6,0
TELSTAR 11N,2009-009A,2026-07-22T22:05:36.398688,1.00271660,.0002566,0.0588,257.2014,212.4432,124.8663,0,U,34111,999,4660,0,-.246E-5,0
WGS F2 (USA 204),2009-017A,2026-07-22T21:54:14.238720,1.00276276,.0000566,0.0151,70.0521,36.2380,220.4278,0,U,34713,999,4597,0,.71E-6,0
SES-7 (PROTOSTAR 2),2009-027A,2026-07-22T22:06:02.043072,1.00270323,.00013776,0.0090,34.5163,155.2365,190.6419,0,U,34941,999,6298,0,-.34E-5,0
MEASAT-3A,2009-032A,2026-07-22T20:38:09.941856,1.00272561,.00029527,0.0216,7.4183,103.0136,299.7073,0,U,35362,999,838,0,-.106E-5,0
EWS-G3 (GOES 14),2009-033A,2026-07-22T22:09:31.708224,1.00094772,.00022333,1.7793,82.5995,39.4726,271.1668,0,U,35491,999,694,0,-.356E-5,0
FM-5,2009-034A,2026-07-22T19:27:49.142016,1.00269867,.00008415,0.0407,259.3821,129.7730,117.1659,0,U,35493,999,4700,0,-.196E-5,0
TERRESTAR-1,2009-035A,2026-07-22T21:12:59.336640,1.00272469,.00025431,5.1970,48.7616,67.6092,31.5036,0,U,35496,999,6249,0,-.56E-6,0
ASIASAT 5,2009-042A,2026-07-22T03:20:38.575968,1.00271191,.00012789,0.0135,49.1374,47.9625,353.4809,0,U,35696,999,6206,0,-.304E-5,0
JCSAT-12 (JCSAT-RA),2009-044A,2026-07-22T22:12:53.885088,1.00272322,.00004995,0.0392,271.9351,264.9462,229.0552,0,U,35755,999,6196,0,-.323E-5,0
OPTUS D3,2009-044B,2026-07-22T20:37:02.549856,1.00274080,.00036115,0.8962,268.1677,212.4307,285.3885,0,U,35756,999,6192,0,-.14E-5,0
NIMIQ 5,2009-050A,2026-07-22T21:43:42.251232,1.00271881,.00029273,0.0612,257.8458,212.5338,83.4937,0,U,35873,999,6170,0,-.253E-5,0
AMAZONAS 2,2009-054A,2026-07-22T19:32:03.735168,1.00272309,.00034727,1.9051,82.5935,33.7375,45.2498,0,U,35942,999,6154,0,-.257E-5,0
COMSATBW-1,2009-054B,2026-07-22T21:53:10.775328,1.00272572,.00029688,0.0669,151.3340,329.7748,210.8392,0,U,35943,999,6166,0,.29E-6,0
NSS-12,2009-058A,2026-07-22T21:51:25.941888,1.00274044,.0004923,0.0737,268.7794,175.3851,241.3459,0,U,36032,999,6127,0,.75E-6,0
THOR 6,2009-058B,2026-07-22T19:52:19.720992,1.00269664,.00020707,0.0416,238.7953,253.8837,105.1275,0,U,36033,999,6136,0,-.6E-7,0
INTELSAT 14 (IS-14),2009-064A,2026-07-22T21:22:22.734624,1.00271234,.00025741,0.0169,54.3482,69.5761,92.2927,0,U,36097,999,6096,0,-.269E-5,0
EUTELSAT 36B,2009-065A,2026-07-22T21:24:38.597760,1.00272574,.00057648,0.5785,81.3622,36.4485,194.4625,0,U,36101,999,6106,0,.116E-5,0
INTELSAT 15 (IS-15),2009-067A,2026-07-22T21:59:32.665056,1.00272191,.00023829,0.0150,56.6682,63.7709,235.2527,0,U,36106,999,4158,0,-.181E-5,0
WGS F3 (USA 211),2009-068A,2026-07-22T17:32:52.498752,1.00269778,.00004605,0.2916,85.6838,49.4186,298.5756,0,U,36108,999,4694,0,.68E-6,0
DIRECTV 12,2009-075A,2026-07-22T15:57:58.264416,1.00271974,.00002202,0.0077,213.0864,346.3224,237.7680,0,U,36131,999,4690,0,-.1E-5,0
BEIDOU-2 G1,2010-001A,2026-07-22T22:15:16.157376,1.00270052,.00016912,4.3755,60.2847,299.6371,55.0032,0,U,36287,999,6052,0,-.28E-5,0
SDO,2010-005A,2026-07-21T04:42:27.771264,1.00277625,.00016475,34.7200,85.8242,43.2128,138.3850,0,U,36395,999,6040,0,-.97E-6,0
INTELSAT 16 (IS-16),2010-006A,2026-07-22T21:13:29.055648,1.00272186,.00021483,0.0096,351.6480,126.4672,64.6787,0,U,36397,999,6001,0,-.24E-5,0
EWS-G2 (GOES 15),2010-008A,2026-07-22T22:43:25.374144,1.00272247,.00056347,1.3739,82.3732,52.5640,209.8467,0,U,36411,999,5999,0,.25E-6,0
ECHOSTAR 14,2010-010A,2026-07-22T15:53:21.207264,1.00273609,.00021206,0.0126,40.3638,66.3754,313.1032,0,U,36499,999,4690,0,.4E-7,0
SES-1,2010-016A,2026-07-22T14:15:47.263392,1.00272236,.00026866,0.0485,272.9679,201.6225,298.6930,0,U,36516,999,5938,0,-.111E-5,0
ASTRA 3B,2010-021A,2026-07-22T22:41:32.674848,1.00273704,.00042005,1.5586,83.1082,29.3298,192.1355,0,U,36581,999,5922,0,.14E-5,0
COMSATBW-2,2010-021B,2026-07-22T21:08:31.584768,1.00270647,.00024422,0.0417,147.7105,341.1519,142.0760,0,U,36582,999,5931,0,.92E-6,0
BEIDOU-2 G3,2010-024A,2026-07-21T15:28:06.729312,1.00273888,.00072355,4.5954,61.3561,359.4237,190.2146,0,U,36590,999,5911,0,-.137E-5,0
